OBJECT_NAME,OBJECT_ID,EPOCH,MEAN_MOTION,ECCENTRICITY,INCLINATION,RA_OF_ASC_NODE,ARG_OF_PERICENTER,MEAN_ANOMALY,EPHEMERIS_TYPE,CLASSIFICATION_TYPE,NORAD_CAT_ID,ELEMENT_SET_NO,REV_AT_EPOCH,BSTAR,MEAN_MOTION_DOT,MEAN_MOTION_DDOT
VELOX-CI,2015-077A,2026-03-08T10:58:14.208096,15.45693088,.00053474,14.9820,142.3315,190.5671,169.4542,0,U,41166,999,56709,.65686115E-3,.34094E-3,0
KENT RIDGE 1,2015-077B,2026-03-08T19:37:54.450048,15.22445677,.00084783,14.9800,292.0622,264.3564,95.5791,0,U,41167,999,56577,.22960785E-3,.6243E-4,0
DAMPE,2015-078A,2026-03-10T06:11:35.875968,15.30503539,.00138168,97.4588,74.2496,69.6680,290.6044,0,U,41173,999,56941,.88580273E-4,.2541E-4,0
GSAT0209 (GALILEO 12),2015-079A,2026-03-08T17:35:25.349856,1.70474601,.00048989,55.7621,104.0163,323.1919,36.8422,0,U,41174,999,6306,0,.7E-7,0
GSAT0208 (GALILEO 11),2015-079B,2026-03-09T12:57:13.393440,1.70474450,.00043428,55.7611,103.9912,323.6707,36.3660,0,U,41175,999,6350,0,.1E-6,0
ORBCOMM FM114,2015-081A,2026-03-10T01:54:21.161376,14.58730725,.00012783,47.0040,110.5306,120.2059,239.8954,0,U,41179,999,54328,.1833166E-3,.693E-5,0
ORBCOMM FM110,2015-081D,2026-03-10T01:38:48.726528,14.58736608,.0003376,47.0011,110.0537,319.9225,40.1412,0,U,41182,999,54315,.23990197E-3,.96E-5,0
ORBCOMM FM118,2015-081E,2026-03-09T11:40:57.402336,14.58732197,.00039245,47.0034,113.1194,286.8765,73.1690,0,U,41183,999,54317,.26393443E-3,.1073E-4,0
ORBCOMM FM112,2015-081F,2026-03-10T05:50:09.398112,14.58732730,.00009881,47.0004,18.0431,103.1849,256.9147,0,U,41184,999,54450,.25255607E-3,.102E-4,0
ORBCOMM FM113,2015-081G,2026-03-10T05:17:20.480352,14.58732961,.0000662,47.0022,18.5189,123.2425,236.8524,0,U,41185,999,54448,.23632896E-3,.943E-5,0
ORBCOMM FM108,2015-081J,2026-03-09T23:27:36.043200,14.58744526,.00021685,47.0049,291.2091,99.6047,260.5084,0,U,41187,999,54559,.22860618E-3,.907E-5,0
ORBCOMM FM117,2015-081K,2026-03-10T00:16:37.805952,14.58736282,.00025793,47.0012,289.7152,108.9443,251.1722,0,U,41188,999,54564,.22779642E-3,.903E-5,0
ORBCOMM FM116,2015-081L,2026-03-10T06:23:31.607520,14.58729658,.00024199,47.0038,18.2925,316.3327,43.7367,0,U,41189,999,54449,.27593729E-3,.113E-4,0
EXPRESS-AMU1,2015-082A,2026-03-10T05:24:52.437024,1.00274165,.00029986,0.0193,105.4790,232.8943,306.8191,0,U,41191,999,3727,0,.157E-5,0
GAOFEN-4,2015-083A,2026-03-10T07:27:25.684416,1.00271272,.00038913,0.3944,83.8058,79.6275,222.0901,0,U,41194,999,3753,0,-.333E-5,0
BELINTERSAT-1,2016-001A,2026-03-10T05:29:14.518464,1.00272308,.00014438,0.0349,282.1079,57.0796,322.4874,0,U,41238,999,3724,0,.109E-5,0
JASON-3,2016-002A,2026-03-10T06:49:14.056608,12.87626081,.00077656,66.0445,333.7717,277.0814,82.9322,0,U,41240,999,47451,.21076964E-3,-.9E-7,0
IRNSS-1E,2016-003A,2026-03-09T21:13:09.877440,1.00272501,.0017488,33.0198,61.1787,189.2084,347.2603,0,U,41241,999,3708,0,-.291E-5,0
EUTELSAT 9B,2016-005A,2026-03-10T05:17:08.178720,1.00271776,.00042721,0.0374,65.5856,264.5323,286.0295,0,U,41310,999,3712,0,.63E-6,0
NAVSTAR 76 (USA 266),2016-007A,2026-03-10T03:30:21.300768,2.00556570,.00955891,55.4595,93.3848,246.1537,112.8925,0,U,41328,999,7385,0,-.3E-7,0
COSMOS 2514 [GLONASS-M],2016-008A,2026-03-08T20:43:32.680416,2.13102747,.00090605,65.0799,316.4521,208.1993,151.8085,0,U,41330,999,7848,0,-.57E-6,0
SENTINEL-3A,2016-011A,2026-03-10T06:19:04.174464,14.26741934,.0001246,98.6227,138.0416,98.7939,261.3382,0,U,41335,999,52395,.83527631E-4,.159E-5,0
HORYU-4,2016-012D,2026-03-10T07:07:24.561984,15.63018068,.00031571,30.9918,63.7673,158.8748,201.2036,0,U,41340,999,55520,.11902548E-2,.113978E-2,0
SES-9,2016-013A,2026-03-10T03:36:38.875680,1.00271576,.0001712,0.0353,302.3424,101.2409,286.6790,0,U,41380,999,3644,0,-.343E-5,0
EUTELSAT 65 WEST A,2016-014A,2026-03-10T01:30:38.727072,1.00270617,.00021611,0.0799,48.4760,306.9736,129.7393,0,U,41382,999,3654,0,-.275E-5,0
IRNSS-1F,2016-015A,2026-03-10T05:23:52.533312,1.00274248,.00190336,5.0989,99.1229,188.5519,353.6110,0,U,41384,999,3667,0,.159E-5,0
COSMOS 2515,2016-020A,2026-03-10T07:17:15.157824,15.07604635,.00222224,97.9826,81.0532,277.7977,82.0727,0,U,41394,999,54551,.18542527E-3,.2767E-4,0
BEIDOU-2 IGSO-6,2016-021A,2026-03-09T21:08:17.842848,1.00277798,.0059671,60.0943,39.0243,233.3075,308.0530,0,U,41434,999,3648,0,-.138E-5,0
IRNSS-1G,2016-027A,2026-03-09T23:59:38.674752,1.00266030,.00054444,4.9490,99.8670,314.7652,242.3934,0,U,41469,999,3618,0,-.334E-5,0
JCSAT-2B,2016-028A,2026-03-10T04:27:38.573568,1.00273451,.00008274,0.0186,160.0903,205.2500,23.4231,0,U,41471,999,3613,0,-.163E-5,0
YAOGAN-30 01,2016-029A,2026-03-10T08:02:25.481760,14.76275925,.00157711,97.9148,121.3088,188.5659,171.5284,0,U,41473,999,52908,.15209947E-3,.1005E-4,0
GSAT0211 (GALILEO 14),2016-030A,2026-03-08T11:46:25.320576,1.70473962,.00035223,55.1305,224.4612,24.6498,335.3169,0,U,41549,999,6095,0,.31E-6,0
GSAT0210 (GALILEO 13),2016-030B,2026-03-09T22:06:16.318944,1.70474041,.00013053,55.1253,224.4201,198.7925,161.1586,0,U,41550,999,6097,0,.35E-6,0
THAICOM 8,2016-031A,2026-03-10T03:54:16.125696,1.00272328,.00041481,0.0565,24.1813,336.4625,304.3022,0,U,41552,999,3572,0,-.12E-5,0
ZIYUAN 3-02 (ZY 3-02),2016-033A,2026-03-10T06:23:25.336608,15.21566324,.0010996,97.3895,146.9112,296.6469,63.3641,0,U,41556,999,54294,.36756803E-3,.8233E-4,0
COSMOS 2517 (GEO-IK 2),2016-034A,2026-03-10T07:26:35.277792,13.85906037,.00009523,99.1930,79.9541,99.2173,260.9090,0,U,41579,999,49393,.52224126E-4,.16E-6,0
INTELSAT 31 (IS-31),2016-035A,2026-03-10T03:04:52.190976,1.00272417,.00015431,0.0377,250.6271,341.4641,246.8778,0,U,41581,999,3569,0,-.149E-5,0
BEIDOU-2 G7,2016-037A,2026-03-09T21:12:39.925152,1.00278131,.0007345,1.4744,68.2800,345.0999,182.8083,0,U,41586,999,589,0,-.352E-5,0
ABS-2A (MONGOLSAT-1),2016-038A,2026-03-10T03:53:16.221984,1.00271852,.00018342,0.0085,166.9886,127.6366,6.2451,0,U,41588,999,3571,0,-.82E-6,0
EUTELSAT 117 WEST B,2016-038B,2026-03-10T04:41:11.625216,1.00271148,.00002884,0.0323,17.3510,258.2446,205.5601,0,U,41589,999,3567,0,-.1E-6,0
BRISAT,2016-039A,2026-03-10T05:36:38.619648,1.00271394,.00021313,0.0120,228.1641,128.0294,46.3613,0,U,41591,999,3561,0,-.195E-5,0
ECHOSTAR 18,2016-039B,2026-03-10T03:14:28.769280,1.00271823,.00014955,0.0185,148.4039,211.5691,155.0898,0,U,41592,999,3563,0,-.28E-5,0
CARTOSAT-2C,2016-040A,2026-03-10T07:55:27.245280,15.19230112,.00104654,97.4601,130.6069,118.9761,241.2524,0,U,41599,999,53870,.19708903E-3,.4088E-4,0
SKYSAT-C1,2016-040C,2026-03-10T00:38:45.692736,15.34521196,.00035407,96.9702,106.1762,52.6309,307.5257,0,U,41601,999,54265,.33058608E-3,.10988E-3,0
LAPAN-A3,2016-040E,2026-03-10T06:52:07.229856,15.32393619,.00109505,97.1488,68.7406,20.9579,339.2110,0,U,41603,999,53966,.18143163E-3,.5609E-4,0
MUOS-5,2016-041A,2026-03-10T04:44:03.848928,1.00273512,.01949574,2.4195,299.9000,262.5625,291.3652,0,U,41622,999,3609,0,-.148E-5,0
SJ 16-02,2016-043A,2026-03-10T06:21:02.924352,14.93232614,.00086727,75.0003,106.1928,274.3006,85.7191,0,U,41634,999,52637,.12108996E-3,.1238E-4,0
TIANTONG-1 1,2016-048A,2026-03-10T07:26:10.804128,1.00269916,.00061774,3.6609,42.4856,359.5964,338.8348,0,U,41725,999,3527,0,-.314E-5,0
GAOFEN-3,2016-049A,2026-03-10T06:57:26.685216,14.42216919,.00016798,98.4056,78.5545,89.4041,270.7342,0,U,41727,999,50439,.85693203E-4,.239E-5,0
JCSAT-16,2016-050A,2026-03-10T05:36:38.619648,1.00271531,.00011411,0.0183,158.1677,215.6159,22.2193,0,U,41729,999,3507,0,-.249E-5,0
USA 270,2016-052A,2026-03-07T16:26:15.571680,1.00329109,.0003493,3.9367,78.4846,295.1716,207.8251,0,U,41744,999,2711,0,-.16E-6,0
USA 271,2016-052B,2026-03-07T18:24:12.606048,1.00264971,.0008233,3.9094,78.5496,150.8759,338.2620,0,U,41745,999,2690,0,-.351E-5,0
INTELSAT 36 (IS-36),2016-053A,2026-03-10T03:51:31.389408,1.00270004,.00010243,0.0148,121.1381,215.9464,317.1361,0,U,41747,999,3496,0,0,0
INSAT-3DR,2016-054A,2026-03-10T03:53:01.246272,1.00273361,.00128161,0.0613,93.0691,189.5229,17.4855,0,U,41752,999,3482,0,-.76E-6,0
PERUSAT 1,2016-058A,2026-03-10T07:30:28.257120,14.58550135,.00011993,98.2091,144.2057,92.1441,267.9896,0,U,41770,999,50468,.11428743E-3,.485E-5,0
SKYSAT-C4,2016-058B,2026-03-10T07:16:12.926496,15.45400109,.00010042,96.9292,95.3801,121.8769,238.2579,0,U,41771,999,53018,.43013692E-3,.205E-3,0
SKYSAT-C5,2016-058C,2026-03-10T02:04:28.347744,15.34300267,.00017121,97.0615,114.1343,84.6199,275.5240,0,U,41772,999,52855,.31132572E-3,.10267E-3,0
SKYSAT-C2,2016-058D,2026-03-10T00:47:53.451456,15.39712888,.00050082,97.0283,94.9699,67.5350,292.6427,0,U,41773,999,52978,.36744418E-3,.1446E-3,0
SKYSAT-C3,2016-058E,2026-03-10T01:48:11.719296,15.48340368,.00016958,96.9177,103.9302,110.3652,249.7782,0,U,41774,999,53075,.4691293E-3,.24765E-3,0
PISAT,2016-059B,2026-03-09T23:04:32.672928,14.68774579,.002956,97.8192,73.6916,159.8662,200.3717,0,U,41784,999,50517,.24766E-3,.1407E-4,0
ALSAT-1B,2016-059C,2026-03-10T06:47:22.128000,14.72190121,.00091751,97.7806,82.3024,175.4846,184.6447,0,U,41785,999,50602,.1457185E-3,.872E-5,0
ALSAT-2B,2016-059D,2026-03-10T07:03:04.987872,14.70731948,.00016843,98.0008,133.4278,116.4471,243.6909,0,U,41786,999,50623,.23553957E-3,.1388E-4,0
PATHFINDER 1,2016-059E,2026-03-10T00:04:43.405824,14.67518980,.00289672,97.8179,72.7629,159.7985,200.4374,0,U,41787,999,50516,.18163887E-3,.989E-5,0
SCATSAT 1,2016-059H,2026-03-10T03:03:23.001984,14.79264914,.00544158,98.1303,131.8428,206.1152,153.7312,0,U,41790,999,8694,.24817017E-3,.1834E-4,0
GSAT-18,2016-060A,2026-03-10T03:53:01.246272,1.00272046,.0003563,0.0173,139.4982,264.0804,256.4735,0,U,41793,999,3453,0,-.75E-6,0
SKY MUSTER 2 (NBN1B),2016-060B,2026-03-10T04:12:59.330880,1.00272640,.00014779,0.0108,224.1150,128.1707,23.5883,0,U,41794,999,3452,0,-.243E-5,0
HIMAWARI-9,2016-064A,2026-03-09T21:21:16.598016,1.00270792,.0001383,0.0157,151.6763,237.9489,239.0259,0,U,41836,999,3421,0,-.273E-5,0
SHIJIAN-17 (SJ-17),2016-065A,2026-03-10T03:38:11.494752,0.99864461,.0001155,5.5004,73.7929,323.0548,207.4626,0,U,41838,999,3421,0,.76E-6,0
